[
    {
        "Altitude(m)": 617710.7047545544,
        "Argument of Periapsis(deg)": 0.0,
        "Eccentricity": 0.0,
        "Inclination(deg)": 60.0,
        "Latitude(deg)": -41.1028363632676,
        "Longitude(deg)": -75.03332619459981,
        "Mean Anomaly(deg)": -49.09089999999996,
        "RAAN(deg)": 55.00000000000001,
        "Satellite Name": "Test1 261",
        "Satellite Number": 261,
        "Semi-Major Axis(m)": 6980739.136638005,
        "Time(s)": 0
    },
    {
        "Altitude(m)": 617518.0029285274,
        "Argument of Periapsis(deg)": 0.00010418945913296404,
        "Eccentricity": 0.0,
        "Inclination(deg)": 60.0,
        "Latitude(deg)": -40.637042890220066,
        "Longitude(deg)": -74.53653200050275,
        "Mean Anomaly(deg)": -48.470793854538066,
        "RAAN(deg)": 54.999579950860266,
        "Satellite Name": "Test1 261",
        "Satellite Number": 261,
        "Semi-Major Axis(m)": 6980739.136638005,
        "Time(s)": 10
    }
]